[{"OBJECT_NAME":"TISAT 1","OBJECT_ID":"2010-035E","EPOCH":"2026-03-09T18:10:07.877568","MEAN_MOTION":15.27628633,"ECCENTRICITY":0.00013432,"INCLINATION":98.0645,"RA_OF_ASC_NODE":6.8512,"ARG_OF_PERICENTER":159.303,"MEAN_ANOMALY":200.8262,"EPHEMERIS_TYPE":0,"CLASSIFICATION_TYPE":"U","NORAD_CAT_ID":36799,"ELEMENT_SET_NO":999,"REV_AT_EPOCH":85250,"BSTAR":0.00091004793,"MEAN_MOTION_DOT":0.00024554,"MEAN_MOTION_DDOT":0},{"OBJECT_NAME":"STARLINK-31480","OBJECT_ID":"2024-056L","EPOCH":"2026-03-09T11:30:31.424832","MEAN_MOTION":15.27570263,"ECCENTRICITY":0.00022487,"INCLINATION":43.003,"RA_OF_ASC_NODE":231.7654,"ARG_OF_PERICENTER":267.0952,"MEAN_ANOMALY":92.9642,"EPHEMERIS_TYPE":0,"CLASSIFICATION_TYPE":"U","NORAD_CAT_ID":59306,"ELEMENT_SET_NO":999,"REV_AT_EPOCH":11112,"BSTAR":-1.7053959e-5,"MEAN_MOTION_DOT":-7.32e-6,"MEAN_MOTION_DDOT":0}]
