TISAT 1                 
1 36799U 10035E   26068.75703561  .00024554  00000+0  91005-3 0  9996
2 36799  98.0645   6.8512 0001343 159.3030 200.8262 15.27628633852505
STARLINK-31480          
1 59306U 24056L   26068.47953038 -.00000732  00000+0 -17054-4 0  9995
2 59306  43.0030 231.7654 0002248 267.0952  92.9642 15.27570263111126
